[{"OBJECT_NAME":"ONEWEB-0661","OBJECT_ID":"2023-029AB","EPOCH":"2026-03-09T16:12:51.430464","MEAN_MOTION":13.14502994,"ECCENTRICITY":0.00013961,"INCLINATION":87.8978,"RA_OF_ASC_NODE":309.6081,"ARG_OF_PERICENTER":90.1887,"MEAN_ANOMALY":269.9403,"EPHEMERIS_TYPE":0,"CLASSIFICATION_TYPE":"U","NORAD_CAT_ID":55821,"ELEMENT_SET_NO":999,"REV_AT_EPOCH":14631,"BSTAR":-7.5684834e-5,"MEAN_MOTION_DOT":-1.5e-7,"MEAN_MOTION_DDOT":0},{"OBJECT_NAME":"UNKNOWN","OBJECT_ID":"","EPOCH":"2026-03-06T09:35:38.016384","MEAN_MOTION":13.23147973,"ECCENTRICITY":0.01508445,"INCLINATION":100.3415,"RA_OF_ASC_NODE":127.8689,"ARG_OF_PERICENTER":310.4646,"MEAN_ANOMALY":48.3401,"EPHEMERIS_TYPE":0,"CLASSIFICATION_TYPE":"U","NORAD_CAT_ID":270073,"ELEMENT_SET_NO":999,"REV_AT_EPOCH":30272,"BSTAR":0.0019679922,"MEAN_MOTION_DOT":8.36e-6,"MEAN_MOTION_DDOT":0}]
